JILIN-1                 
1 40961U 15057D   26197.25625577  .00000353  00000+0  55231-4 0  9992
2 40961  97.6520 195.1818 0017323 163.5083 196.6695 14.78202188579909
JILIN-1 03              
1 41914U 17002B   26197.29417103  .00007405  00000+0  17410-3 0  9992
2 41914  97.1947 203.9823 0007838  76.5153 283.6968 15.42247661526348
JILIN-1 04              
1 43022U 17074A   26197.27272223  .00007954  00000+0  18157-3 0  9991
2 43022  97.4882 307.6782 0005245  97.4091 262.7753 15.43149133478757
JILIN-1 05              
1 43023U 17074B   26197.27768498  .00004460  00000+0  13675-3 0  9995
2 43023  97.4885 303.8361 0006491 121.6268 238.5609 15.34295076478469
JILIN-1 06              
1 43024U 17074C   26197.25379439  .00003226  00000+0  10049-3 0  9998
2 43024  97.4810 300.7823 0008143 130.9351 229.2598 15.34002897478291
JILIN-1 07              
1 43159U 18008E   26197.29835787  .00004551  00000+0  13550-3 0  9994
2 43159  97.1763 216.4584 0006626 323.3640  36.7150 15.35174434469466
JILIN-1 08              
1 43160U 18008F   26197.25399568  .00003136  00000+0  97577-4 0  9994
2 43160  97.1802 215.6986 0005184 348.5600  11.5524 15.34016696469406
JILIN-1 09              
1 43943U 19005B   26197.26533741  .00002326  00000+0  10885-3 0  9991
2 43943  97.4748 291.9846 0002229  33.6848 326.4529 15.20745788413567
JILIN-1 10              
1 43946U 19005E   26197.24332991  .00002990  00000+0  11903-3 0  9995
2 43946  97.4800 296.0547 0008676 166.3681 193.7793 15.26013021413746
