{"fetched_at":"2026-07-16T17:46:44.456Z","source":"https://celestrak.org/NORAD/elements/gp.php?NAME=JILIN&FORMAT=JSON","constellation":"jilin-1-early","records":[{"OBJECT_NAME":"JILIN-1","OBJECT_ID":"2015-057D","EPOCH":"2026-07-16T06:09:00.498528","CLASSIFICATION_TYPE":"U","MEAN_MOTION":14.78202188,"ECCENTRICITY":0.00173233,"INCLINATION":97.652,"RA_OF_ASC_NODE":195.1818,"ARG_OF_PERICENTER":163.5083,"MEAN_ANOMALY":196.6695,"EPHEMERIS_TYPE":0,"NORAD_CAT_ID":40961,"ELEMENT_SET_NO":999,"REV_AT_EPOCH":57990,"BSTAR":0.000055231456,"MEAN_MOTION_DOT":0.00000353,"MEAN_MOTION_DDOT":0},{"OBJECT_NAME":"JILIN-1 03","OBJECT_ID":"2017-002B","EPOCH":"2026-07-16T07:03:36.376992","CLASSIFICATION_TYPE":"U","MEAN_MOTION":15.42247661,"ECCENTRICITY":0.00078385,"INCLINATION":97.1947,"RA_OF_ASC_NODE":203.9823,"ARG_OF_PERICENTER":76.5153,"MEAN_ANOMALY":283.6968,"EPHEMERIS_TYPE":0,"NORAD_CAT_ID":41914,"ELEMENT_SET_NO":999,"REV_AT_EPOCH":52634,"BSTAR":0.00017409516,"MEAN_MOTION_DOT":0.00007405,"MEAN_MOTION_DDOT":0},{"OBJECT_NAME":"JILIN-1 04","OBJECT_ID":"2017-074A","EPOCH":"2026-07-16T06:32:43.200672","CLASSIFICATION_TYPE":"U","MEAN_MOTION":15.43149133,"ECCENTRICITY":0.00052454,"INCLINATION":97.4882,"RA_OF_ASC_NODE":307.6782,"ARG_OF_PERICENTER":97.4091,"MEAN_ANOMALY":262.7753,"EPHEMERIS_TYPE":0,"NORAD_CAT_ID":43022,"ELEMENT_SET_NO":999,"REV_AT_EPOCH":47875,"BSTAR":0.0001815675,"MEAN_MOTION_DOT":0.00007954,"MEAN_MOTION_DDOT":0},{"OBJECT_NAME":"JILIN-1 05","OBJECT_ID":"2017-074B","EPOCH":"2026-07-16T06:39:51.982272","CLASSIFICATION_TYPE":"U","MEAN_MOTION":15.34295076,"ECCENTRICITY":0.00064915,"INCLINATION":97.4885,"RA_OF_ASC_NODE":303.8361,"ARG_OF_PERICENTER":121.6268,"MEAN_ANOMALY":238.5609,"EPHEMERIS_TYPE":0,"NORAD_CAT_ID":43023,"ELEMENT_SET_NO":999,"REV_AT_EPOCH":47846,"BSTAR":0.0001367456,"MEAN_MOTION_DOT":0.0000446,"MEAN_MOTION_DDOT":0},{"OBJECT_NAME":"JILIN-1 06","OBJECT_ID":"2017-074C","EPOCH":"2026-07-16T06:05:27.835296","CLASSIFICATION_TYPE":"U","MEAN_MOTION":15.34002897,"ECCENTRICITY":0.00081433,"INCLINATION":97.481,"RA_OF_ASC_NODE":300.7823,"ARG_OF_PERICENTER":130.9351,"MEAN_ANOMALY":229.2598,"EPHEMERIS_TYPE":0,"NORAD_CAT_ID":43024,"ELEMENT_SET_NO":999,"REV_AT_EPOCH":47829,"BSTAR":0.00010048826,"MEAN_MOTION_DOT":0.00003226,"MEAN_MOTION_DDOT":0},{"OBJECT_NAME":"JILIN-1 07","OBJECT_ID":"2018-008E","EPOCH":"2026-07-16T07:09:38.119968","CLASSIFICATION_TYPE":"U","MEAN_MOTION":15.35174434,"ECCENTRICITY":0.00066264,"INCLINATION":97.1763,"RA_OF_ASC_NODE":216.4584,"ARG_OF_PERICENTER":323.364,"MEAN_ANOMALY":36.715,"EPHEMERIS_TYPE":0,"NORAD_CAT_ID":43159,"ELEMENT_SET_NO":999,"REV_AT_EPOCH":46946,"BSTAR":0.00013549797,"MEAN_MOTION_DOT":0.00004551,"MEAN_MOTION_DDOT":0},{"OBJECT_NAME":"JILIN-1 08","OBJECT_ID":"2018-008F","EPOCH":"2026-07-16T06:05:45.226752","CLASSIFICATION_TYPE":"U","MEAN_MOTION":15.34016696,"ECCENTRICITY":0.00051842,"INCLINATION":97.1802,"RA_OF_ASC_NODE":215.6986,"ARG_OF_PERICENTER":348.56,"MEAN_ANOMALY":11.5524,"EPHEMERIS_TYPE":0,"NORAD_CAT_ID":43160,"ELEMENT_SET_NO":999,"REV_AT_EPOCH":46940,"BSTAR":0.000097577433,"MEAN_MOTION_DOT":0.00003136,"MEAN_MOTION_DDOT":0},{"OBJECT_NAME":"JILIN-1 09","OBJECT_ID":"2019-005B","EPOCH":"2026-07-16T06:22:05.152224","CLASSIFICATION_TYPE":"U","MEAN_MOTION":15.20745788,"ECCENTRICITY":0.00022296,"INCLINATION":97.4748,"RA_OF_ASC_NODE":291.9846,"ARG_OF_PERICENTER":33.6848,"MEAN_ANOMALY":326.4529,"EPHEMERIS_TYPE":0,"NORAD_CAT_ID":43943,"ELEMENT_SET_NO":999,"REV_AT_EPOCH":41356,"BSTAR":0.00010884722,"MEAN_MOTION_DOT":0.00002326,"MEAN_MOTION_DDOT":0},{"OBJECT_NAME":"JILIN-1 10","OBJECT_ID":"2019-005E","EPOCH":"2026-07-16T05:50:23.704224","CLASSIFICATION_TYPE":"U","MEAN_MOTION":15.26013021,"ECCENTRICITY":0.0008676,"INCLINATION":97.48,"RA_OF_ASC_NODE":296.0547,"ARG_OF_PERICENTER":166.3681,"MEAN_ANOMALY":193.7793,"EPHEMERIS_TYPE":0,"NORAD_CAT_ID":43946,"ELEMENT_SET_NO":999,"REV_AT_EPOCH":41374,"BSTAR":0.00011902579,"MEAN_MOTION_DOT":0.0000299,"MEAN_MOTION_DDOT":0}]}
